CCSDS_OMM_VERS,COMMENT,CREATION_DATE,ORIGINATOR,OBJECT_NAME,OBJECT_ID,CENTER_NAME,REF_FRAME,TIME_SYSTEM,MEAN_ELEMENT_THEORY,EPOCH,MEAN_MOTION,ECCENTRICITY,INCLINATION,RA_OF_ASC_NODE,ARG_OF_PERICENTER,MEAN_ANOMALY,EPHEMERIS_TYPE,CLASSIFICATION_TYPE,NORAD_CAT_ID,ELEMENT_SET_NO,REV_AT_EPOCH,BSTAR,MEAN_MOTION_DOT,MEAN_MOTION_DDOT,SEMIMAJOR_AXIS,PERIOD,APOAPSIS,PERIAPSIS,OBJECT_TYPE,RCS_SIZE,COUNTRY_CODE,LAUNCH_DATE,SITE,DECAY_DATE,FILE,GP_ID,TLE_LINE0,TLE_LINE1,TLE_LINE2,NORAD_KEY,JCAT,DeepCat,Satcat,Piece,Active,Type,Name,LDate,Parent,Owner,State,SDate,ExpandedStatus,DDate,ODate,Period,Perigee,PF,Apogee,AF,Inc,IF,OpOrbit,SATCAT_KEY,DENSITY_SCORE
3.0,GENERATED VIA SPACE-TRACK.ORG API,2026-05-06T14:46:56,18 SPCS,INTELSAT 25(PROTOSTAR 1),2008-034A,EARTH,TEME,UTC,SGP4,2026-05-06T12:25:55.942176,0.99496814,0.000173,2.6005,80.7899,321.6431,304.0004,0,U,33153,999,6527,0.0,-1.98e-06,0.0,42383.393,1447.283,36012.591,35997.926,PAYLOAD,LARGE,ITSO,2008-07-07,FRGUI,,5177011,322293614,0 INTELSAT 25(PROTOSTAR 1),1 33153U 08034A   26126.51800859 -.00000198  00000-0  00000+0 0  9991,2 33153   2.6005  80.7899 0001730 321.6431 304.0004  0.99496814 65273,33153,S33153,-,33153,2008-034A,P,P,Intelsat IS-25,2008 Jul  7,S33155,SESINTU,US,2008 Jul  7 2214,In Earth orbit,-,2026 May  4 ,1446.257,35978, ,35992, ,2.6, ,GEO/D,33153,1.880601692976546
3.0,GENERATED VIA SPACE-TRACK.ORG API,2026-05-06T14:56:52,18 SPCS,USA 130,1997-008A,EARTH,TEME,UTC,SGP4,2026-05-06T11:17:05.770752,0.99032501,0.001133,14.4209,4.1108,323.3526,36.0277,0,U,24737,999,1839,0.0,-2.54e-06,0.0,42515.766,1454.068,36185.802,36089.461,PAYLOAD,,US,1997-02-23,AFETR,,5177538,322306656,0 USA 130,1 24737U 97008A   26126.47020568 -.00000254  00000-0  00000+0 0  9997,2 24737  14.4209   4.1108 0011330 323.3526  36.0277  0.99032501 18396,24737,S24737,-,24737,1997-008A,P,P       c,DSP F18,1997 Feb 23,S24740,SFSSC,US,1997 Feb 24 0300?,In Earth orbit,-,2026 May  3 ,1454.06,36088, ,36186, ,14.42, ,GEO/ID,24737,1.8810819376553292
3.0,GENERATED VIA SPACE-TRACK.ORG API,2026-05-06T14:56:52,18 SPCS,AMC-4 (GE-4),1999-060A,EARTH,TEME,UTC,SGP4,2026-05-06T13:43:23.371392,0.99130944,0.0001364,5.148,74.3536,248.0434,180.4583,0,U,25954,999,4300,0.0,7.6e-07,0.0,42487.614,1452.624,36115.275,36103.684,PAYLOAD,LARGE,SES,1999-11-13,FRGUI,,5177577,322307642,0 AMC-4 (GE-4),1 25954U 99060A   26126.57179828  .00000076  00000-0  00000+0 0  9995,2 25954   5.1480  74.3536 0001364 248.0434 180.4583  0.99130944 43007,25954,S25954,-,25954,1999-060A,P,P,AMC 4,1999 Nov 13,S25955,SESSAP,US,1999 Nov 13 2315,In Earth orbit,-,2026 May  4 ,1452.623,36103, ,36115, ,5.14, ,GEO/ID,25954,1.8810947216462466
3.0,GENERATED VIA SPACE-TRACK.ORG API,2026-05-05T22:56:34,18 SPCS,USA 254,2014-043B,EARTH,TEME,UTC,SGP4,2026-05-05T18:10:21.572832,0.99132393,0.0002708,4.6087,76.6631,279.1581,110.2492,0,U,40100,999,2715,0.0,-2.37e-06,0.0,42487.2,1452.603,36120.571,36097.56,PAYLOAD,,US,2014-07-28,AFETR,,5176218,322200550,0 USA 254,1 40100U 14043B   26125.75719413 -.00000237  00000-0  00000+0 0  9992,2 40100   4.6087  76.6631 0002708 279.1581 110.2492  0.99132393 27154,40100,S40100,-,40100,2014-043B,P,P ------c,USA 254,2014 Jul 28,A08274,USSF,US,2014 Jul 29 0530?,In Earth orbit,-,2026 May  3 ,1452.596,36097, ,36120, ,4.6, ,GEO/ID,40100,1.88117199955299
3.0,GENERATED VIA SPACE-TRACK.ORG API,2026-05-06T07:56:53,18 SPCS,INSAT 2C,1995-067B,EARTH,TEME,UTC,SGP4,2026-05-05T21:45:20.418912,0.99779511,0.0004445,14.282,8.5831,25.0759,260.3502,0,U,23731,999,11098,0.0,-2.53e-06,0.0,42303.301,1443.182,35943.97,35906.362,PAYLOAD,LARGE,IND,1995-12-06,FRGUI,,5176707,322253229,0 INSAT 2C,1 23731U 95067B   26125.90648633 -.00000253  00000-0  00000+0 0  9998,2 23731  14.2820   8.5831 0004445  25.0759 260.3502  0.99779511110980,23731,S23731,-,23731,1995-067B,P,P,Insat 2C,1995 Dec  6,S23732,ISRO,IN,1995 Dec  6 2349,In Earth orbit,-,2026 May  4 ,1443.17,35906, ,35943, ,14.28, ,GEO/ID,23731,1.8844698303834855
3.0,GENERATED VIA SPACE-TRACK.ORG API,2026-05-06T10:08:52,18 SPCS,RADUGA 28,1991-087A,EARTH,TEME,UTC,SGP4,2026-05-06T04:47:02.325408,1.00329073,0.00036853,13.3961,341.3627,184.7116,171.7878,0,U,21821,999,12589,0.0,1.19e-06,0.0,42148.68,1435.277,35786.078,35755.012,PAYLOAD,LARGE,CIS,1991-12-19,TTMTR,,5176958,322264777,0 RADUGA 28,1 21821U 91087A   26126.19933247  .00000119  00000-0  00000-0 0  9995,2 21821  13.3961 341.3627 0003685 184.7116 171.7878  1.00329073125894,21821,S21821,-,21821,1991-087A,P,P,Raduga,1991 Dec 19,S21824,VVKOV,SU,1991 Dec 19 1817?,In Earth orbit,-,2026 May  5 ,1435.284,35755, ,35786, ,13.4, ,GEO/ID,21821,1.8858502938466222
3.0,GENERATED VIA SPACE-TRACK.ORG API,2026-05-06T14:46:56,18 SPCS,RADUGA 1M-2,2010-002A,EARTH,TEME,UTC,SGP4,2026-05-06T08:41:49.143840,0.98970359,0.0006975,3.5124,79.3582,266.3332,154.2088,0,U,36358,999,4961,0.0,-2.68e-06,0.0,42533.561,1454.981,36185.093,36125.759,PAYLOAD,LARGE,CIS,2010-01-28,TTMTR,,5177100,322296065,0 RADUGA 1M-2,1 36358U 10002A   26126.36237435 -.00000268  00000-0  00000+0 0  9994,2 36358   3.5124  79.3582 0006975 266.3332 154.2088  0.98970359 49616,36358,S36358,-,36358,2010-002A,P,P,Raduga-1M,2010 Jan 28,S36359,VVKOV,RU,2010 Jan 28 0916,In Earth orbit,-,2026 May  5 ,1454.976,36125, ,36185, ,3.51, ,GEO/ID,36358,1.8887364557092639
3.0,GENERATED VIA SPACE-TRACK.ORG API,2026-05-06T10:08:52,18 SPCS,INSAT 1B,1983-089B,EARTH,TEME,UTC,SGP4,2026-05-06T01:32:04.353792,1.00163512,0.00082128,11.2249,327.3096,245.2942,112.6967,0,U,14318,999,12478,0.0,-1.11e-06,0.0,42195.112,1437.649,35851.631,35782.323,PAYLOAD,LARGE,IND,1983-08-30,AFETR,,5176958,322262770,0 INSAT 1B,1 14318U 83089B   26126.06393928 -.00000111  00000-0  00000-0 0  9996,2 14318  11.2249 327.3096 0008213 245.2942 112.6967  1.00163512124783,14318,S14318,-,14318,1983-089B,P,P ---S-,Insat 1B,1983 Aug 30,S14524,ISRO,IN,1983 Aug 30 0914?,In Earth orbit,-,2026 May  5 ,1437.648,35782, ,35851, ,11.23, ,GEO/ID,14318,1.8890975848965814
3.0,GENERATED VIA SPACE-TRACK.ORG API,2026-05-06T14:56:52,18 SPCS,EUROBIRD 4A(EUTELSAT W1),2000-052A,EARTH,TEME,UTC,SGP4,2026-05-06T11:53:00.508992,0.98181209,0.0011819,11.2523,46.4253,297.8423,189.8848,0,U,26487,999,9277,0.0,-1.61e-06,0.0,42761.171,1466.676,36433.576,36332.497,PAYLOAD,LARGE,EUTE,2000-09-06,FRGUI,,5177592,322307328,0 EUROBIRD 4A(EUTELSAT W1),1 26487U 00052A   26126.49514478 -.00000161  00000-0  00000+0 0  9991,2 26487  11.2523  46.4253 0011819 297.8423 189.8848  0.98181209 92771,26487,S26487,-,26487,2000-052A,P,P,EUTELSAT 4A,2000 Sep  6,S26488,EUTSA,F,2000 Sep  6 2253,In Earth orbit,-,2026 May  4 ,1466.666,36331, ,36433, ,11.25, ,GEO/ID,26487,1.8898208685907492
3.0,GENERATED VIA SPACE-TRACK.ORG API,2026-05-06T10:08:52,18 SPCS,LUCH,1994-082A,EARTH,TEME,UTC,SGP4,2026-05-05T14:22:17.397408,1.00166151,0.00041848,14.7496,354.9288,206.8513,153.09,0,U,23426,999,11483,0.0,-2.16e-06,0.0,42194.371,1437.611,35833.894,35798.579,PAYLOAD,LARGE,CIS,1994-12-16,TTMTR,,5176958,322264571,0 LUCH,1 23426U 94082A   26125.59881247 -.00000216  00000-0  00000-0 0  9990,2 23426  14.7496 354.9288 0004185 206.8513 153.0900  1.00166151114838,23426,S23426,-,23426,1994-082A,P,P,Luch,1994 Dec 16,S23429,VVKOV,RU,1994 Dec 16 1840?,In Earth orbit,-,2026 May  4 ,1437.608,35798, ,35833, ,14.75, ,GEO/ID,23426,1.8914594496844164
3.0,GENERATED VIA SPACE-TRACK.ORG API,2026-05-06T15:06:46,18 SPCS,CHINASAT 32 (BEIDOU 1),2000-069A,EARTH,TEME,UTC,SGP4,2026-05-06T11:13:41.236896,0.98905737,0.0010986,12.2802,32.6093,346.3067,75.5805,0,U,26599,999,9277,0.0,6.1e-07,0.0,42552.086,1455.932,36220.698,36127.203,PAYLOAD,LARGE,PRC,2000-10-30,XSC,,5177721,322311261,0 CHINASAT 32 (BEIDOU 1),1 26599U 00069A   26126.46783839  .00000061  00000-0  00000+0 0  9997,2 26599  12.2802  32.6093 0010986 346.3067  75.5805  0.98905737 92777,26599,S26599,-,26599,2000-069A,P,P      G,Beidou DJW,2000 Oct 30,S26600,CNSA,CN,2000 Oct 30 1625?,In Earth orbit,-,2026 May  4 ,1455.935,36126, ,36221, ,12.28, ,GEO/ID,26599,1.8934807603326234
3.0,GENERATED VIA SPACE-TRACK.ORG API,2026-05-06T02:32:52,18 SPCS,NATO 4A,1991-001A,EARTH,TEME,UTC,SGP4,2026-05-05T18:29:19.754592,0.98283698,0.0003747,13.0301,355.0309,244.9336,297.5774,0,U,21047,999,12770,0.0,-7e-07,0.0,42731.439,1465.146,36369.315,36337.292,PAYLOAD,LARGE,NATO,1991-01-08,AFETR,,5176277,322214381,0 NATO 4A,1 21047U 91001A   26125.77036753 -.00000070  00000-0  00000-0 0  9997,2 21047  13.0301 355.0309 0003747 244.9336 297.5774  0.98283698127702,21047,S21047,-,21047,1991-001A,P,P,NATO IVA,1991 Jan  8,S21049,NATO,I-NATO,1991 Jan  8 0123,In Earth orbit,-,2026 May  4 ,1465.157,36337, ,36369, ,13.03, ,GEO/ID,21047,1.8948233494113245
3.0,GENERATED VIA SPACE-TRACK.ORG API,2026-05-06T10:08:52,18 SPCS,TELSTAR 302,1984-093D,EARTH,TEME,UTC,SGP4,2026-05-06T04:50:24.502272,0.99774514,0.0001715,14.1549,345.6782,152.0749,212.9839,0,U,15237,999,4602,0.0,1.04e-06,0.0,42304.714,1443.254,35933.834,35919.324,PAYLOAD,LARGE,US,1984-08-30,AFETR,,5176958,322262888,0 TELSTAR 302,1 15237U 84093D   26126.20167248  .00000104  00000-0  00000-0 0  9994,2 15237  14.1549 345.6782 0001715 152.0749 212.9839  0.99774514 46023,15237,S15237,-,15237,1984-093D,P,P ---S-,Telstar 302,1984 Aug 30,S15246,TSKYB,US,1984 Sep  1 1412,In Earth orbit,-,2026 May  5 ,1443.259,35919, ,35933, ,14.16, ,GEO/ID,15237,1.8954558456683828
3.0,GENERATED VIA SPACE-TRACK.ORG API,2026-05-06T14:56:52,18 SPCS,RADUGA 1-2,1990-116A,EARTH,TEME,UTC,SGP4,2026-05-06T11:24:14.609376,1.00221827,0.0003942,12.9146,338.2302,132.9132,11.5927,0,U,21038,999,4692,0.0,-2.07e-06,0.0,42178.743,1436.813,35817.235,35783.981,PAYLOAD,LARGE,CIS,1990-12-27,TTMTR,,5177431,322303257,0 RADUGA 1-2,1 21038U 90116A   26126.47516909 -.00000207  00000-0  00000+0 0  9998,2 21038  12.9146 338.2302 0003942 132.9132  11.5927  1.00221827 46928,21038,S21038,-,21038,1990-116A,P,P,Raduga-1,1990 Dec 27,S21041,VVKOV,SU,1990 Dec 27 1750?,In Earth orbit,-,2026 May  4 ,1436.807,35783, ,35817, ,12.92, ,GEO/ID,21038,1.8965251055247307
